STARLINK-4693
1 53605U 22104T   26090.83335647  .00726761  00000+0  24582-1 0  9994
2 53605  53.2161 143.1072 0000832  93.8860 165.9589 15.27833086  5836
